{"fetched_at":"2026-07-21T07:06:51.703Z","source":"https://celestrak.org/NORAD/elements/gp.php?NAME=GLOBAL&FORMAT=JSON","constellation":"blacksky-gen3","records":[{"OBJECT_NAME":"GLOBAL-31","OBJECT_ID":"2025-033B","EPOCH":"2026-07-20T15:36:57.468960","CLASSIFICATION_TYPE":"U","MEAN_MOTION":15.38379356,"ECCENTRICITY":0.00125259,"INCLINATION":58.9975,"RA_OF_ASC_NODE":180.9377,"ARG_OF_PERICENTER":59.5506,"MEAN_ANOMALY":300.6805,"EPHEMERIS_TYPE":0,"NORAD_CAT_ID":63027,"ELEMENT_SET_NO":999,"REV_AT_EPOCH":7947,"BSTAR":0.00017428972,"MEAN_MOTION_DOT":0.00006335,"MEAN_MOTION_DDOT":0},{"OBJECT_NAME":"GLOBAL-32","OBJECT_ID":"2025-118B","EPOCH":"2026-07-20T18:44:29.277024","CLASSIFICATION_TYPE":"U","MEAN_MOTION":15.3937904,"ECCENTRICITY":0.00169324,"INCLINATION":58.9944,"RA_OF_ASC_NODE":356.58,"ARG_OF_PERICENTER":64.4966,"MEAN_ANOMALY":295.7859,"EPHEMERIS_TYPE":0,"NORAD_CAT_ID":64231,"ELEMENT_SET_NO":999,"REV_AT_EPOCH":6341,"BSTAR":0.0002377903,"MEAN_MOTION_DOT":0.00009092,"MEAN_MOTION_DDOT":0},{"OBJECT_NAME":"GLOBAL-33","OBJECT_ID":"2025-267A","EPOCH":"2026-07-20T08:59:48.221088","CLASSIFICATION_TYPE":"U","MEAN_MOTION":15.37288054,"ECCENTRICITY":0.00082825,"INCLINATION":42.0181,"RA_OF_ASC_NODE":223.1104,"ARG_OF_PERICENTER":133.728,"MEAN_ANOMALY":226.4247,"EPHEMERIS_TYPE":0,"NORAD_CAT_ID":66554,"ELEMENT_SET_NO":999,"REV_AT_EPOCH":3715,"BSTAR":0.00015132894,"MEAN_MOTION_DOT":0.00005393,"MEAN_MOTION_DDOT":0},{"OBJECT_NAME":"GLOBAL-34","OBJECT_ID":"2026-043A","EPOCH":"2026-07-20T21:45:40.826592","CLASSIFICATION_TYPE":"U","MEAN_MOTION":15.3318063,"ECCENTRICITY":0.0002671,"INCLINATION":42.0223,"RA_OF_ASC_NODE":25.7221,"ARG_OF_PERICENTER":191.5119,"MEAN_ANOMALY":168.5658,"EPHEMERIS_TYPE":0,"NORAD_CAT_ID":68098,"ELEMENT_SET_NO":999,"REV_AT_EPOCH":2100,"BSTAR":0.00024246035,"MEAN_MOTION_DOT":0.00007696,"MEAN_MOTION_DDOT":0}]}
