GLOBAL-31               
1 63027U 25033B   26201.65066515  .00006335  00000+0  17429-3 0  9998
2 63027  58.9975 180.9377 0012525  59.5506 300.6805 15.38379356 79472
GLOBAL-32               
1 64231U 25118B   26201.78089441  .00009092  00000+0  23779-3 0  9995
2 64231  58.9944 356.5800 0016932  64.4966 295.7859 15.39379040 63410
GLOBAL-33               
1 66554U 25267A   26201.37486367  .00005393  00000+0  15133-3 0  9998
2 66554  42.0181 223.1104 0008282 133.7280 226.4247 15.37288054 37157
GLOBAL-34               
1 68098U 26043A   26201.90672253  .00007696  00000+0  24246-3 0  9999
2 68098  42.0223  25.7221 0002671 191.5119 168.5658 15.33180630 21000
